; Generated by gen_square.py
; Square: 50.0mm × 50.0mm, 5 walls, 0.4mm spacing
; ---- Start ----
G28 ; home all axes
G90 ; absolute positioning
M82 ; absolute extrusion
G21 ; units = millimeters
M104 S200 ; set hotend temperature
M140 S60 ; set bed temperature
M190 S60 ; wait for bed
M109 S200 ; wait for hotend
G1 Z5.0 F3000 ; lift nozzle
G1 X0 Y0 F3000 ; move to origin
G1 Z0.2 F3000 ; lower to first layer height

; --- Wall 1/5 ---
G0 X-25.000 Y-25.000 F1800
G1 X25.000 Y-25.000 E1.0 F1800
G1 X25.000 Y25.000 E2.0 F1800
G1 X-25.000 Y25.000 E3.0 F1800
G1 X-25.000 Y-25.000 E4.0 F1800

; --- Wall 2/5 ---
G0 X-24.600 Y-24.600 F1800
G1 X24.600 Y-24.600 E1.0 F1800
G1 X24.600 Y24.600 E2.0 F1800
G1 X-24.600 Y24.600 E3.0 F1800
G1 X-24.600 Y-24.600 E4.0 F1800

; --- Wall 3/5 ---
G0 X-24.200 Y-24.200 F1800
G1 X24.200 Y-24.200 E1.0 F1800
G1 X24.200 Y24.200 E2.0 F1800
G1 X-24.200 Y24.200 E3.0 F1800
G1 X-24.200 Y-24.200 E4.0 F1800

; --- Wall 4/5 ---
G0 X-23.800 Y-23.800 F1800
G1 X23.800 Y-23.800 E1.0 F1800
G1 X23.800 Y23.800 E2.0 F1800
G1 X-23.800 Y23.800 E3.0 F1800
G1 X-23.800 Y-23.800 E4.0 F1800

; --- Wall 5/5 ---
G0 X-23.400 Y-23.400 F1800
G1 X23.400 Y-23.400 E1.0 F1800
G1 X23.400 Y23.400 E2.0 F1800
G1 X-23.400 Y23.400 E3.0 F1800
G1 X-23.400 Y-23.400 E4.0 F1800

; ---- End ----
G1 Z5.0 F3000 ; lift nozzle
M104 S0 ; turn off hotend
M140 S0 ; turn off bed
G28 X Y ; home XY
M84 ; disable motors
